{
  "type": "FeatureCollection",
  "features": [
    {
      "type": "Feature",
      "properties": {
        "norad_id": 35602,
        "name": "COSMOS 2251 DEB",
        "group": "cosmos-2251-debris",
        "lat": 16.875606581853027,
        "lon": -11.912341412121881,
        "alt_km": 444.7883048745671,
        "timestamp": "2025-12-16T23:36:36.594379+00:00",
        "meta_object_name": "COSMOS 2251 DEB",
        "meta_object_id": "1993-036AMV",
        "meta_epoch": "2025-12-16T06:27:31.942080",
        "meta_mean_motion": 15.35209315,
        "meta_eccentricity": 0.00894744,
        "meta_inclination": 73.9932,
        "meta_ra_of_asc_node": 174.6204,
        "meta_arg_of_pericenter": 239.6346,
        "meta_mean_anomaly": 295.7459,
        "meta_ephemeris_type": 0,
        "meta_classification_type": "U",
        "meta_norad_cat_id": 35602,
        "meta_element_set_no": 999,
        "meta_rev_at_epoch": 90145,
        "meta_bstar": 0.00038912769,
        "meta_mean_motion_dot": 0.00015156,
        "meta_mean_motion_ddot": 0,
        "tle_line1": "1 35602U 93036AMV 25350.26911970  .00015156  00000+0  38913-3 0  9991",
        "tle_line2": "2 35602  73.9932 174.6204 0089474 239.6346 295.7459 15.35209315901454"
      },
      "geometry": {
        "type": "Point",
        "coordinates": [
          -11.912341412121881,
          16.875606581853027
        ]
      }
    },
    {
      "type": "Feature",
      "properties": {
        "norad_id": 35605,
        "name": "COSMOS 2251 DEB",
        "group": "cosmos-2251-debris",
        "lat": -28.322857369109396,
        "lon": 156.39839892726445,
        "alt_km": 452.47813447596127,
        "timestamp": "2025-12-16T23:36:36.594389+00:00",
        "meta_object_name": "COSMOS 2251 DEB",
        "meta_object_id": "1993-036AMY",
        "meta_epoch": "2025-12-16T05:30:02.725344",
        "meta_mean_motion": 15.35586787,
        "meta_eccentricity": 0.00242235,
        "meta_inclination": 73.8701,
        "meta_ra_of_asc_node": 329.0606,
        "meta_arg_of_pericenter": 257.5437,
        "meta_mean_anomaly": 102.3057,
        "meta_ephemeris_type": 0,
        "meta_classification_type": "U",
        "meta_norad_cat_id": 35605,
        "meta_element_set_no": 999,
        "meta_rev_at_epoch": 66025,
        "meta_bstar": 0.0050760725,
        "meta_mean_motion_dot": 0.00181517,
        "meta_mean_motion_ddot": 0,
        "tle_line1": "1 35605U 93036AMY 25350.22919821  .00181517  00000+0  50761-2 0  9992",
        "tle_line2": "2 35605  73.8701 329.0606 0024223 257.5437 102.3057 15.35586787660251"
      },
      "geometry": {
        "type": "Point",
        "coordinates": [
          156.39839892726445,
          -28.322857369109396
        ]
      }
    },
    {
      "type": "Feature",
      "properties": {
        "norad_id": 35606,
        "name": "COSMOS 2251 DEB",
        "group": "cosmos-2251-debris",
        "lat": 15.745788861270187,
        "lon": 179.3351272951953,
        "alt_km": 857.941327360265,
        "timestamp": "2025-12-16T23:36:36.594399+00:00",
        "meta_object_name": "COSMOS 2251 DEB",
        "meta_object_id": "1993-036AMZ",
        "meta_epoch": "2025-12-15T07:23:01.893984",
        "meta_mean_motion": 13.41214459,
        "meta_eccentricity": 0.04573982,
        "meta_inclination": 73.8103,
        "meta_ra_of_asc_node": 6.7036,
        "meta_arg_of_pericenter": 212.0605,
        "meta_mean_anomaly": 145.1917,
        "meta_ephemeris_type": 0,
        "meta_classification_type": "U",
        "meta_norad_cat_id": 35606,
        "meta_element_set_no": 999,
        "meta_rev_at_epoch": 61074,
        "meta_bstar": 0.00058042329,
        "meta_mean_motion_dot": 5.74e-06,
        "meta_mean_motion_ddot": 0,
        "tle_line1": "1 35606U 93036AMZ 25349.30766081  .00000574  00000+0  58042-3 0  9992",
        "tle_line2": "2 35606  73.8103   6.7036 0457398 212.0605 145.1917 13.41214459610748"
      },
      "geometry": {
        "type": "Point",
        "coordinates": [
          179.3351272951953,
          15.745788861270187
        ]
      }
    },
    {
      "type": "Feature",
      "properties": {
        "norad_id": 35611,
        "name": "COSMOS 2251 DEB",
        "group": "cosmos-2251-debris",
        "lat": 36.62280663562288,
        "lon": -21.270302985605316,
        "alt_km": 651.8075275356559,
        "timestamp": "2025-12-16T23:36:36.594409+00:00",
        "meta_object_name": "COSMOS 2251 DEB",
        "meta_object_id": "1993-036ANE",
        "meta_epoch": "2025-12-14T22:03:55.318464",
        "meta_mean_motion": 14.72918088,
        "meta_eccentricity": 0.00215588,
        "meta_inclination": 74.0194,
        "meta_ra_of_asc_node": 175.0515,
        "meta_arg_of_pericenter": 247.96,
        "meta_mean_anomaly": 111.9283,
        "meta_ephemeris_type": 0,
        "meta_classification_type": "U",
        "meta_norad_cat_id": 35611,
        "meta_element_set_no": 999,
        "meta_rev_at_epoch": 87322,
        "meta_bstar": 0.0014598859,
        "meta_mean_motion_dot": 9.374e-05,
        "meta_mean_motion_ddot": 0,
        "tle_line1": "1 35611U 93036ANE 25348.91939026  .00009374  00000+0  14599-2 0  9990",
        "tle_line2": "2 35611  74.0194 175.0515 0021558 247.9600 111.9283 14.72918088873221"
      },
      "geometry": {
        "type": "Point",
        "coordinates": [
          -21.270302985605316,
          36.62280663562288
        ]
      }
    },
    {
      "type": "Feature",
      "properties": {
        "norad_id": 35614,
        "name": "COSMOS 2251 DEB",
        "group": "cosmos-2251-debris",
        "lat": 7.501646925061915,
        "lon": 137.0650295819537,
        "alt_km": 618.6737324742107,
        "timestamp": "2025-12-16T23:36:36.594420+00:00",
        "meta_object_name": "COSMOS 2251 DEB",
        "meta_object_id": "1993-036ANH",
        "meta_epoch": "2025-12-13T06:27:06.231168",
        "meta_mean_motion": 14.67025191,
        "meta_eccentricity": 0.00756959,
        "meta_inclination": 73.9589,
        "meta_ra_of_asc_node": 326.4366,
        "meta_arg_of_pericenter": 180.7813,
        "meta_mean_anomaly": 179.3251,
        "meta_ephemeris_type": 0,
        "meta_classification_type": "U",
        "meta_norad_cat_id": 35614,
        "meta_element_set_no": 999,
        "meta_rev_at_epoch": 87737,
        "meta_bstar": 0.0013853104,
        "meta_mean_motion_dot": 8.085e-05,
        "meta_mean_motion_ddot": 0,
        "tle_line1": "1 35614U 93036ANH 25347.26882212  .00008085  00000+0  13853-2 0  9994",
        "tle_line2": "2 35614  73.9589 326.4366 0075695 180.7813 179.3251 14.67025191877378"
      },
      "geometry": {
        "type": "Point",
        "coordinates": [
          137.0650295819537,
          7.501646925061915
        ]
      }
    },
    {
      "type": "Feature",
      "properties": {
        "norad_id": 35645,
        "name": "COSMOS 2251 DEB",
        "group": "cosmos-2251-debris",
        "lat": -68.03657405339233,
        "lon": 34.29079484990098,
        "alt_km": 713.5852801408828,
        "timestamp": "2025-12-16T23:36:36.594430+00:00",
        "meta_object_name": "COSMOS 2251 DEB",
        "meta_object_id": "1993-036ANL",
        "meta_epoch": "2025-12-16T07:20:48.801696",
        "meta_mean_motion": 14.45637338,
        "meta_eccentricity": 0.00697096,
        "meta_inclination": 73.9645,
        "meta_ra_of_asc_node": 81.0516,
        "meta_arg_of_pericenter": 238.3924,
        "meta_mean_anomaly": 121.0418,
        "meta_ephemeris_type": 0,
        "meta_classification_type": "U",
        "meta_norad_cat_id": 35645,
        "meta_element_set_no": 999,
        "meta_rev_at_epoch": 86823,
        "meta_bstar": 0.0014653045,
        "meta_mean_motion_dot": 5.314e-05,
        "meta_mean_motion_ddot": 0,
        "tle_line1": "1 35645U 93036ANL 25350.30612039  .00005314  00000+0  14653-2 0  9996",
        "tle_line2": "2 35645  73.9645  81.0516 0069709 238.3924 121.0418 14.45637338868230"
      },
      "geometry": {
        "type": "Point",
        "coordinates": [
          34.29079484990098,
          -68.03657405339233
        ]
      }
    },
    {
      "type": "Feature",
      "properties": {
        "norad_id": 35646,
        "name": "COSMOS 2251 DEB",
        "group": "cosmos-2251-debris",
        "lat": 41.19936888338256,
        "lon": 63.9673946341835,
        "alt_km": 1236.1312664262132,
        "timestamp": "2025-12-16T23:36:36.594441+00:00",
        "meta_object_name": "COSMOS 2251 DEB",
        "meta_object_id": "1993-036ANM",
        "meta_epoch": "2025-12-15T23:10:17.358816",
        "meta_mean_motion": 13.40825911,
        "meta_eccentricity": 0.04566629,
        "meta_inclination": 73.872,
        "meta_ra_of_asc_node": 50.9103,
        "meta_arg_of_pericenter": 160.5551,
        "meta_mean_anomaly": 14.1916,
        "meta_ephemeris_type": 0,
        "meta_classification_type": "U",
        "meta_norad_cat_id": 35646,
        "meta_element_set_no": 999,
        "meta_rev_at_epoch": 81901,
        "meta_bstar": 0.00060262644,
        "meta_mean_motion_dot": 5.94e-06,
        "meta_mean_motion_ddot": 0,
        "tle_line1": "1 35646U 93036ANM 25349.96547869  .00000594  00000+0  60263-3 0  9999",
        "tle_line2": "2 35646  73.8720  50.9103 0456662 160.5551  14.1916 13.40825911819018"
      },
      "geometry": {
        "type": "Point",
        "coordinates": [
          63.9673946341835,
          41.19936888338256
        ]
      }
    }
  ]
}